METEOSAT-7              
1 24932U 97049B   14299.89207797  .00000056  00000-0  00000+0 0  4471
2 24932   9.3068  46.7267 0002334 204.5178 162.8427  1.00267534 62814
NOAA 15                 
1 25338U 98030A   14300.51710561  .00000302  00000-0  14675-3 0  3978
2 25338  98.7620 294.1817 0011694 122.1595  37.1677 14.25492492855699
METEOSAT-8 (MSG-1)      
1 27509U 02040B   14300.13314491  .00000022  00000-0  00000+0 0  1842
2 27509   3.1020  61.8060 0003026 180.3282 205.0311  1.00278315 44622
KALPANA-1 (METSAT 1)    
1 27525U 02043A   14299.86466226 -.00000081  00000-0  00000+0 0  1211
2 27525   4.6399  62.3349 0013526 201.5276 156.5722  1.00272958 44416
INSAT-3A                
1 27714U 03013A   14299.71131788 -.00000260  00000-0  00000+0 0  5825
2 27714   0.0603  80.5555 0003227  66.6385 237.3828  1.00269901 42320
FENGYUN 2C              
1 28451U 04042A   14299.85603029 -.00000360  00000-0  10000-3 0  1455
2 28451   5.7007  57.7630 0001382 280.1218 129.0535  1.00279225 36681
HIMAWARI-6 (MTSAT-1R)   
1 28622U 05006A   14297.90199123 -.00000281  00000-0  00000+0 0  2879
2 28622   0.0409  54.0106 0000927 218.1211 225.8253  1.00272568 35360
NOAA 18                 
1 28654U 05018A   14300.47358900  .00000197  00000-0  13289-3 0  3080
2 28654  99.1638 282.7279 0013429 251.5187 219.0356 14.12085844486234
METEOSAT-9 (MSG-2)      
1 28912U 05049B   14300.13328213  .00000061  00000-0  00000+0 0  3182
2 28912   0.4519  31.4508 0001147 194.4762 227.0174  1.00264605 32473
MTSAT-2                 
1 28937U 06004A   14300.38128941 -.00000245  00000-0  00000+0 0  7442
2 28937   0.0026 267.8322 0002663 305.6196 104.5387  1.00274040 31804
FORMOSAT-3 FM6          
1 29047U 06011A   14300.15083167  .00000614  00000-0  26012-3 0  5125
2 29047  71.9815 353.7293 0051232  11.2903 348.9369 14.28094740447114
FORMOSAT-3 FM1          
1 29048U 06011B   14300.11180773  .00000817  00000-0  34161-3 0  5874
2 29048  71.9692 267.0089 0046220 325.6288 108.3440 14.28072968449597
FORMOSAT-3 FM5          
1 29049U 06011C   14300.46055139  .00000658  00000-0  27933-3 0  5175
2 29049  72.0218  66.3037 0035503   9.3291  51.4950 14.28085638445429
FORMOSAT-3 FM3          
1 29050U 06011D   14299.88705623  .00002985  00000-0  66144-3 0  8827
2 29050  72.0186  62.1455 0049252 107.2292 253.4259 14.57109025456010
FORMOSAT-3 FM4          
1 29051U 06011E   14300.47919293  .00000678  00000-0  28170-3 0  5805
2 29051  72.0073 331.9853 0070873 247.3496 112.0134 14.28097907448005
FORMOSAT-3 FM2          
1 29052U 06011F   14300.49267269  .00000656  00000-0  27734-3 0  6034
2 29052  72.0373  40.1057 0042091 335.3160 106.4730 14.28174877446325
GOES 13                 
1 29155U 06018A   14300.35126515 -.00000253  00000-0  00000+0 0  3830
2 29155   0.1019  98.8150 0001586  59.7836 288.7939  1.00267595 30895
METOP-A                 
1 29499U 06044A   14300.19170814  .00000192  00000-0  10752-3 0  4991
2 29499  98.7099 358.1073 0002220 119.6034 336.2798 14.21507437416186
FENGYUN 2D              
1 29640U 06053A   14297.57411196 -.00000192  00000-0  10000-3 0  1362
2 29640   2.6182  69.3525 0002371 154.6826 101.6268  1.00263150 28908
FENGYUN 3A              
1 32958U 08026A   14300.22428333  .00000156  00000-0  94278-4 0  4887
2 32958  98.5387 354.5055 0009306 189.9920 170.1075 14.19483148332576
FENGYUN 2E              
1 33463U 08066A   14299.99902356 -.00000334  00000-0  10000-3 0  6674
2 33463   2.1758  57.5889 0001619 254.0997 187.7258  1.00278524 21470
NOAA 19                 
1 33591U 09005A   14300.53492407  .00000289  00000-0  18273-3 0  4401
2 33591  98.9595 245.2590 0015042 105.5692  23.2327 14.11790844294660
GOES 14                 
1 35491U 09033A   14299.56914579 -.00000088  00000-0  00000+0 0  6823
2 35491   0.2645 264.0000 0013153 302.2532 288.0037  1.00273454 19546
METEOR-M 1              
1 35865U 09049A   14300.24288102  .00000170  00000-0  96067-4 0   232
2 35865  98.5349 343.5511 0003499  84.4881 322.3353 14.21942438265100
GOES 15                 
1 36411U 10008A   14300.43785091  .00000084  00000-0  00000+0 0  3376
2 36411   0.2901 263.8110 0002852 336.2173 178.2023  1.00279119 17069
COMS 1                  
1 36744U 10032A   14299.62785670 -.00000346  00000-0  10000-3 0  9859
2 36744   0.0316  55.4047 0000492 113.0111 220.8039  1.00272725 16023
FENGYUN 3B              
1 37214U 10059A   14300.45619017  .00000213  00000-0  12239-3 0  3612
2 37214  98.8607 248.8789 0001764  78.9399 281.1974 14.19503643206103
ELEKTRO-L 1 (GOMS 2)    
1 37344U 11001A   14299.11419068 -.00000097  00000-0  00000+0 0  1278
2 37344   0.4932  80.5604 0000972 180.6185 250.2757  1.00270197 13831
SUOMI NPP               
1 37849U 11061A   14300.51159328  .00000166  00000-0  99206-4 0  9298
2 37849  98.7085 239.1747 0001439  70.8237  66.5976 14.19586954155368
FENGYUN 2F              
1 38049U 12002A   14300.51512280 -.00000361  00000-0  10000-3 0  8197
2 38049   0.2983 302.0313 0001474 241.6694 149.4858  1.00280166 10260
METEOSAT-10 (MSG-3)     
1 38552U 12035B   14300.13307631  .00000003  00000-0  00000+0 0  1125
2 38552   0.4873 164.9931 0001635  96.3983 182.6570  1.00283239  8592
METOP-B                 
1 38771U 12049A   14300.14950812  .00000214  00000-0  11820-3 0  6472
2 38771  98.7317 358.0786 0002249 131.8059 281.2300 14.21463277109311
FENGYUN 3C              
1 39260U 13052A   14300.41512985  .00000134  00000-0  84720-4 0  2305
2 39260  98.7595  10.5086 0000824 138.0774 222.0465 14.19491364 56643
METEOR-M 2              
1 40069U 14037A   14300.44972947  .00000062  00000-0  49629-4 0  3365
2 40069  98.7918 351.8182 0006774 107.2035 252.9891 14.20578480 15723
HIMAWARI 8              
1 40267U 14060A   14299.75027221 -.00000277  00000-0  00000+0 0   190
2 40267   0.0627 288.2455 0004259  35.9083 121.7684  1.00270205   239
